STARLINK-35634          
1 66173U 25240AD  26173.73516624  .00027998  00000+0  83661-3 0  9990
2 66173  53.1593 293.2986 0001183  86.1995 273.9143 15.34402466 38095
GAOFEN-14 02            
1 66175U 25242A   26172.77763281  .00004401  00000+0  17734-3 0  9992
2 66175  97.4119 248.2966 0001396 139.0958 221.0385 15.25364744 36392
STARLINK-35363          
1 66178U 25243B   26173.57312791  .00011740  00000+0  35803-3 0  9992
2 66178  53.1612 117.9558 0001469  94.2171 265.9000 15.34400331 36711
STARLINK-35346          
1 66179U 25243C   26173.55420376  .00015043  00000+0  45575-3 0  9997
2 66179  53.1551 117.8408 0002395  80.6404 279.4869 15.34378942 36719
STARLINK-35335          
1 66180U 25243D   26173.07757974  .00584030  00000+0  17674-1 0  9997
2 66180  53.1561 120.5498 0004849 142.3007 217.8334 15.31593113 36633
STARLINK-35342          
1 66181U 25243E   26173.83335648  .00043335  00000+0  12868-2 0  9991
2 66181  53.1591 116.8993 0002056  95.1185 181.8234 15.34387170  5806
STARLINK-35333          
1 66182U 25243F   26173.24954401  .00007378  00000+0  22938-3 0  9998
2 66182  53.1594 119.4939 0001905  35.3304 324.7825 15.34386570 36665
STARLINK-35310          
1 66183U 25243G   26173.55629715  .00017584  00000+0  53032-3 0  9999
2 66183  53.1603 117.8544 0000972 101.6183 258.4929 15.34401337 36719
STARLINK-35317          
1 66184U 25243H   26173.56050893  .00015007  00000+0  45439-3 0  9996
2 66184  53.1572 117.8804 0001699  87.6685 272.4512 15.34401230 36717
STARLINK-35377          
1 66185U 25243J   26173.56260714  .00016185  00000+0  48904-3 0  9990
2 66185  53.1642 117.9001 0000152  72.8734 287.2285 15.34403458 36715
STARLINK-35365          
1 66186U 25243K   26173.72445034  .00021325  00000+0  63995-3 0  9998
2 66186  53.1596 117.4823 0001264  96.4413 263.6734 15.34426075 36731
STARLINK-35350          
1 66187U 25243L   26173.54364417  .00011703  00000+0  40659-3 0  9995
2 66187  53.1568 118.4865 0001086  74.2278 285.8843 15.30202326 36704
STARLINK-35041          
1 66188U 25243M   26173.78111642  .00069469  00000+0  20989-2 0  9997
2 66188  53.1597 117.1229 0002457 139.7580 220.3605 15.33626481 36742
STARLINK-34694          
1 66189U 25243N   26173.06322550  .00021506  00000+0  73605-3 0  9995
2 66189  53.1573 120.4624 0001230 101.1225 258.9914 15.30204319 36637
STARLINK-34863          
1 66190U 25243P   26173.27183051  .00011228  00000+0  39059-3 0  9996
2 66190  53.1569 119.6331 0001136  94.9740 265.1390 15.30202913 36664
STARLINK-35061          
1 66191U 25243Q   26173.06887615  .00017845  00000+0  53759-3 0  9995
2 66191  53.1577 120.4977 0001182 110.4421 249.6709 15.34424687 36637
STARLINK-34937          
1 66192U 25243R   26173.24534283  .00010871  00000+0  33240-3 0  9991
2 66192  53.1597 119.4691 0001382  89.4588 270.6573 15.34400654 36666
STARLINK-35197          
1 66193U 25243S   26173.57309954  .00013520  00000+0  46780-3 0  9990
2 66193  53.1597 117.9532 0001319  87.5315 272.5837 15.30197192 36717
STARLINK-35374          
1 66194U 25243T   26173.06152615  .00022051  00000+0  72000-3 0  9998
2 66194  53.1578 119.7422 0001115  83.7489 276.3640 15.31711263 36647
STARLINK-34813          
1 66195U 25243U   26173.55840146  .00015304  00000+0  46314-3 0  9998
2 66195  53.1610 117.8672 0001839  92.1273 267.9940 15.34401516 36716
STARLINK-35409          
1 66196U 25243V   26173.58257558  .00014720  00000+0  50826-3 0  9995
2 66196  53.1587 118.0154 0001325  67.8402 292.2739 15.30192649 36718
STARLINK-35259          
1 66197U 25243W   26173.32764690  .00012763  00000+0  44216-3 0  9999
2 66197  53.1586 119.2698 0001343  99.3408 260.7745 15.30209486 36670
STARLINK-35518          
1 66198U 25243X   26173.55208627  .00012830  00000+0  44455-3 0  9998
2 66198  53.1571 118.5308 0001268  95.7170 264.3976 15.30200606 36702
STARLINK-35509          
1 66199U 25243Y   26173.57202467  .00015818  00000+0  54485-3 0  9990
2 66199  53.1603 117.9457 0001169  79.7054 280.4078 15.30211815 36717
STARLINK-35551          
1 66200U 25243Z   26173.57518768  .00018804  00000+0  64546-3 0  9994
2 66200  53.1600 117.9645 0001152  77.4496 282.6634 15.30196438 36718
STARLINK-35543          
1 66201U 25243AA  26173.53694677  .00014036  00000+0  46302-3 0  9998
2 66201  53.1560 117.7287 0001363  87.9813 272.1345 15.31712858 36711
STARLINK-35534          
1 66202U 25243AB  26173.58152160  .00016585  00000+0  57101-3 0  9990
2 66202  53.1590 118.0060 0001093  76.7700 283.3423 15.30189573 36711
STARLINK-35548          
1 66203U 25243AC  26173.06217150  .00011599  00000+0  40288-3 0  9993
2 66203  53.1575 120.4488 0001320 108.2888 251.8256 15.30219575 36638
STARLINK-35490          
1 66204U 25243AD  26173.39498580  .00182907  00000+0  59557-2 0  9998
2 66204  53.1578 118.9754 0000775 276.8340  83.2573 15.30639760 36684
STARLINK-35748          
1 66206U 25244A   26173.12859025  .00020239  00000+0  60868-3 0  9994
2 66206  53.1591 103.8111 0001058  98.9797 261.1326 15.34391419 37667
