OBJECT_NAME,OBJECT_ID,EPOCH,MEAN_MOTION,ECCENTRICITY,INCLINATION,RA_OF_ASC_NODE,ARG_OF_PERICENTER,MEAN_ANOMALY,EPHEMERIS_TYPE,CLASSIFICATION_TYPE,NORAD_CAT_ID,ELEMENT_SET_NO,REV_AT_EPOCH,BSTAR,MEAN_MOTION_DOT,MEAN_MOTION_DDOT
STARLINK-35634,2025-240AD,2026-06-22T17:38:38.363136,15.34402466,.00011835,53.1593,293.2986,86.1995,273.9143,0,U,66173,999,3809,.83660927E-3,.27998E-3,0
GAOFEN-14 02,2025-242A,2026-06-21T18:39:47.474784,15.25364744,.00013967,97.4119,248.2966,139.0958,221.0385,0,U,66175,999,3639,.1773396E-3,.4401E-4,0
STARLINK-35363,2025-243B,2026-06-22T13:45:18.251424,15.34400331,.00014691,53.1612,117.9558,94.2171,265.9000,0,U,66178,999,3671,.35803298E-3,.1174E-3,0
STARLINK-35346,2025-243C,2026-06-22T13:18:03.204864,15.34378942,.00023951,53.1551,117.8408,80.6404,279.4869,0,U,66179,999,3671,.4557459E-3,.15043E-3,0
STARLINK-35335,2025-243D,2026-06-22T01:51:42.889536,15.31593113,.00048493,53.1561,120.5498,142.3007,217.8334,0,U,66180,999,3663,.17673664E-1,.58403E-2,0
STARLINK-35342,2025-243E,2026-06-22T20:00:01.999872,15.34387170,.00020569,53.1591,116.8993,95.1185,181.8234,0,U,66181,999,580,.12868004E-2,.43335E-3,0
STARLINK-35333,2025-243F,2026-06-22T05:59:20.602464,15.34386570,.00019058,53.1594,119.4939,35.3304,324.7825,0,U,66182,999,3666,.22938072E-3,.7378E-4,0
STARLINK-35310,2025-243G,2026-06-22T13:21:04.073760,15.34401337,.00009721,53.1603,117.8544,101.6183,258.4929,0,U,66183,999,3671,.53032216E-3,.17584E-3,0
STARLINK-35317,2025-243H,2026-06-22T13:27:07.971552,15.34401230,.00016999,53.1572,117.8804,87.6685,272.4512,0,U,66184,999,3671,.45439309E-3,.15007E-3,0
STARLINK-35377,2025-243J,2026-06-22T13:30:09.256896,15.34403458,.00001524,53.1642,117.9001,72.8734,287.2285,0,U,66185,999,3671,.48903599E-3,.16185E-3,0
STARLINK-35365,2025-243K,2026-06-22T17:23:12.509376,15.34426075,.00012645,53.1596,117.4823,96.4413,263.6734,0,U,66186,999,3673,.63995347E-3,.21325E-3,0
STARLINK-35350,2025-243L,2026-06-22T13:02:50.856288,15.30202326,.00010868,53.1568,118.4865,74.2278,285.8843,0,U,66187,999,3670,.40659261E-3,.11703E-3,0
STARLINK-35041,2025-243M,2026-06-22T18:44:48.458688,15.33626481,.00024572,53.1597,117.1229,139.7580,220.3605,0,U,66188,999,3674,.20988683E-2,.69469E-3,0
STARLINK-34694,2025-243N,2026-06-22T01:31:02.683200,15.30204319,.00012304,53.1573,120.4624,101.1225,258.9914,0,U,66189,999,3663,.73604735E-3,.21506E-3,0
STARLINK-34863,2025-243P,2026-06-22T06:31:26.156064,15.30202913,.00011367,53.1569,119.6331,94.9740,265.1390,0,U,66190,999,3666,.39059353E-3,.11228E-3,0
STARLINK-35061,2025-243Q,2026-06-22T01:39:10.899360,15.34424687,.00011827,53.1577,120.4977,110.4421,249.6709,0,U,66191,999,3663,.53759427E-3,.17845E-3,0
STARLINK-34937,2025-243R,2026-06-22T05:53:17.620512,15.34400654,.00013825,53.1597,119.4691,89.4588,270.6573,0,U,66192,999,3666,.33240492E-3,.10871E-3,0
STARLINK-35197,2025-243S,2026-06-22T13:45:15.800256,15.30197192,.00013194,53.1597,117.9532,87.5315,272.5837,0,U,66193,999,3671,.46779925E-3,.1352E-3,0
STARLINK-35374,2025-243T,2026-06-22T01:28:35.859360,15.31711263,.00011156,53.1578,119.7422,83.7489,276.3640,0,U,66194,999,3664,.71999826E-3,.22051E-3,0
STARLINK-34813,2025-243U,2026-06-22T13:24:05.886144,15.34401516,.00018395,53.1610,117.8672,92.1273,267.9940,0,U,66195,999,3671,.46314052E-3,.15304E-3,0
STARLINK-35409,2025-243V,2026-06-22T13:58:54.530112,15.30192649,.0001325,53.1587,118.0154,67.8402,292.2739,0,U,66196,999,3671,.50825572E-3,.1472E-3,0
STARLINK-35259,2025-243W,2026-06-22T07:51:48.692160,15.30209486,.00013435,53.1586,119.2698,99.3408,260.7745,0,U,66197,999,3667,.44216022E-3,.12763E-3,0
STARLINK-35518,2025-243X,2026-06-22T13:15:00.253728,15.30200606,.00012681,53.1571,118.5308,95.7170,264.3976,0,U,66198,999,3670,.44455126E-3,.1283E-3,0
STARLINK-35509,2025-243Y,2026-06-22T13:43:42.931488,15.30211815,.00011697,53.1603,117.9457,79.7054,280.4078,0,U,66199,999,3671,.54484849E-3,.15818E-3,0
STARLINK-35551,2025-243Z,2026-06-22T13:48:16.215552,15.30196438,.00011522,53.1600,117.9645,77.4496,282.6634,0,U,66200,999,3671,.64545952E-3,.18804E-3,0
STARLINK-35543,2025-243AA,2026-06-22T12:53:12.200928,15.31712858,.00013633,53.1560,117.7287,87.9813,272.1345,0,U,66201,999,3671,.46301587E-3,.14036E-3,0
STARLINK-35534,2025-243AB,2026-06-22T13:57:23.466240,15.30189573,.00010936,53.1590,118.0060,76.7700,283.3423,0,U,66202,999,3671,.5710062E-3,.16585E-3,0
STARLINK-35548,2025-243AC,2026-06-22T01:29:31.617600,15.30219575,.00013203,53.1575,120.4488,108.2888,251.8256,0,U,66203,999,3663,.40288096E-3,.11599E-3,0
STARLINK-35490,2025-243AD,2026-06-22T09:28:46.773120,15.30639760,.0000775,53.1578,118.9754,276.8340,83.2573,0,U,66204,999,3668,.59556977E-2,.182907E-2,0
STARLINK-35748,2025-244A,2026-06-22T03:05:10.197600,15.34391419,.00010587,53.1591,103.8111,98.9797,261.1326,0,U,66206,999,3766,.60868487E-3,.20239E-3,0
